{"id":"299","name":"Venus","centerId":"10","centerName":"Sun ","epoch":"2000-Jan-01 12:00:00.0000","ephemerisTable":{"eccentricity":0.006755786251885615,"periapsis":107477136916.0582,"inclination":3.39458964908054,"longitudeOfAscendingNode":76.67837411646899,"argumentOfPeriapsis":55.18596702940252,"timeOfPeriapsis":2451513.720262355,"meanMotion":0.0000185433806529862,"meanAnomaly":50.11477187404461,"trueAnomaly":50.71202823960058,"semiMajorAxis":108208168170.92911,"apoapsis":108939199425.8,"siderealOrbitPeriod":19413935.71845952,"semiMinorAxis":108205698797.30215,"semiLatusRectum":108203229480.02776,"linearEccentricity":731031254.8712854,"initialPosition":[68224419898.37251,83389663766.52089,0],"initialVelocity":[-27105.766171976487,22412.90999783929,0]},"physicalDataTable":{"meanRadius":6051840,"mass":4.8685e+24,"siderealRotRate":2.9924e-7,"gravParameter":324858592,"obliquity":177.3,"siderealRotationPeriod":20997143.78819538}}
